*******************************************************************************
 Revised: April 12, 2021               Jupiter                              599
 
 PHYSICAL DATA (revised 2025-Jan-30):
  Mass x 10^26 (kg)     = 18.9819           Density (g/cm^3)  = 1.3262 +- .0003
  Equat. radius (1 bar) = 71492+-4 km       Polar radius (km)     = 66854+-10
  Vol. Mean Radius (km) = 69911+-6          Flattening            = 0.06487
  Geometric Albedo      = 0.52              Rocky core mass (Mc/M)= 0.0261
  Sid. rot. period (III)= 9h 55m 29.711 s   Sid. rot. rate (rad/s)= 0.00017585
  Mean solar day, hrs   = ~9.9259         
  GM (km^3/s^2)         = 126686531.900     GM 1-sigma (km^3/s^2) =  +- 1.2732
  Equ. grav, ge (m/s^2) = 24.79             Pol. grav, gp (m/s^2) =  28.34
  Vis. magnitude V(1,0) = -9.40
  Vis. mag. (opposition)= -2.70             Obliquity to orbit    =  3.13 deg
  Sidereal orbit period = 11.861982204 y    Sidereal orbit period = 4332.589 d
  Mean daily motion     = 0.0831294 deg/d   Mean orbit speed, km/s= 13.0697
  Atmos. temp. (1 bar)  = 165+-5 K          Escape speed, km/s    =  59.5           
  A_roche(ice)/Rp       =  2.76             Hill's sphere rad. Rp = 740
                                 Perihelion   Aphelion     Mean
  Solar Constant (W/m^2)         56           46           51
  Maximum Planetary IR (W/m^2)   13.7         13.4         13.6
  Minimum Planetary IR (W/m^2)   13.7         13.4         13.6
*******************************************************************************


*******************************************************************************
Ephemeris / WWW_USER Thu Apr  9 12:50:22 2026 Pasadena, USA      / Horizons
*******************************************************************************
Target body name: Jupiter (599)                   {source: jup365_merged}
Center body name: Sun (10)                        {source: jup365_merged}
Center-site name: BODY CENTER
*******************************************************************************
Start time      : A.D. 1997-Oct-15 09:27:12.0000 TDB
Stop  time      : A.D. 2017-Sep-15 11:58:00.0000 TDB
Step-size       : 1440 minutes
*******************************************************************************
Center geodetic : 0.0, 0.0, 0.0                   {E-lon(deg),Lat(deg),Alt(km)}
Center cylindric: 0.0, 0.0, 0.0                   {E-lon(deg),Dxy(km),Dz(km)}
Center radii    : 695700.0, 695700.0, 695700.0 km {Equator_a, b, pole_c}
Output units    : KM-S
Calendar mode   : Mixed Julian/Gregorian
Output type     : GEOMETRIC cartesian states
Output format   : 3 (position, velocity, LT, range, range-rate)
Reference frame : Ecliptic of J2000.0
*******************************************************************************
JDTDB
   X     Y     Z
   VX    VY    VZ
   LT    RG    RR
*******************************************************************************
$$SOE
2457480.893888889 = A.D. 2016-Apr-02 09:27:12.0000 TDB 
 X =-8.000044489317205E+08 Y = 1.413814547283316E+08 Z = 1.731395019453046E+07
 VX=-2.430359842777039E+00 VY=-1.226131555230627E+01 VZ= 1.053464473601124E-01
 LT= 2.710494316641922E+03 RG= 8.125857535811119E+08 RR= 2.616339497268740E-01
2457481.893888889 = A.D. 2016-Apr-03 09:27:12.0000 TDB 
 X =-8.002137798543153E+08 Y = 1.403220076809132E+08 Z = 1.732303730637297E+07
 VX=-2.414926081856896E+00 VY=-1.226405157293474E+01 VZ= 1.049678772114513E-01
 LT= 2.710569929167152E+03 RG= 8.126084216459062E+08 RR= 2.625608420791027E-01
2457482.893888889 = A.D. 2016-Apr-04 09:27:12.0000 TDB 
 X =-8.004216531345006E+08 Y = 1.392622934748732E+08 Z = 1.733209214056611E+07
 VX=-2.397895624445455E+00 VY=-1.226587556925620E+01 VZ= 1.046365793260478E-01
 LT= 2.710645382929201E+03 RG= 8.126310421146965E+08 RR= 2.620711938231342E-01
2457483.893888889 = A.D. 2016-Apr-05 09:27:12.0000 TDB 
 X =-8.006281739515113E+08 Y = 1.382022989356514E+08 Z = 1.734111194621059E+07
 VX=-2.381266201477449E+00 VY=-1.227133047878469E+01 VZ= 1.041658906111094E-01
 LT= 2.710721015671918E+03 RG= 8.126537162405409E+08 RR= 2.613524992745709E-01
2457484.893888889 = A.D. 2016-Apr-06 09:27:12.0000 TDB 
 X =-8.008331067461451E+08 Y = 1.371419862560015E+08 Z = 1.735009891176338E+07
 VX=-2.363755809638476E+00 VY=-1.227298831476750E+01 VZ= 1.038470835141299E-01
 LT= 2.710796032179856E+03 RG= 8.126762056238462E+08 RR= 2.604157345130186E-01
2457485.893888889 = A.D. 2016-Apr-07 09:27:12.0000 TDB 
 X =-8.010365879676062E+08 Y = 1.360813933941852E+08 Z = 1.735905258899971E+07
 VX=-2.345481167556748E+00 VY=-1.227713574240380E+01 VZ= 1.034495747822000E-01
 LT= 2.710870902430244E+03 RG= 8.126986511602410E+08 RR= 2.583027290562521E-01
2457486.893888889 = A.D. 2016-Apr-08 09:27:12.0000 TDB 
 X =-8.012385106431996E+08 Y = 1.350206012609485E+08 Z = 1.736797692133852E+07
 VX=-2.329230200357651E+00 VY=-1.227922857709216E+01 VZ= 1.030882761168792E-01
 LT= 2.710945319791274E+03 RG= 8.127209609238222E+08 RR= 2.585272880642164E-01
2457487.893888889 = A.D. 2016-Apr-09 09:27:12.0000 TDB 
 X =-8.014389233368480E+08 Y = 1.339595069617088E+08 Z = 1.737686740996139E+07
 VX=-2.309789434612270E+00 VY=-1.228172767232782E+01 VZ= 1.027639439722039E-01
 LT= 2.711019385871959E+03 RG= 8.127431653762052E+08 RR= 2.555379094701706E-01
2457488.893888889 = A.D. 2016-Apr-10 09:27:12.0000 TDB 
 X =-8.016378318778448E+08 Y = 1.328983360917704E+08 Z = 1.738573253456797E+07
 VX=-2.294567391364897E+00 VY=-1.228363335024775E+01 VZ= 1.024041045577819E-01
 LT= 2.711093243747189E+03 RG= 8.127653074101628E+08 RR= 2.567997966588985E-01
2457489.893888889 = A.D. 2016-Apr-11 09:27:12.0000 TDB 
 X =-8.018353140997264E+08 Y = 1.318369274913292E+08 Z = 1.739456538646597E+07
 VX=-2.277535265973924E+00 VY=-1.228530363798740E+01 VZ= 1.020721437401324E-01
 LT= 2.711167059185224E+03 RG= 8.127874367217697E+08 RR= 2.563118124140447E-01
2457490.893888889 = A.D. 2016-Apr-12 09:27:12.0000 TDB 
 X =-8.020314679814181E+08 Y = 1.307752850891109E+08 Z = 1.740336395248506E+07
 VX=-2.261777492120913E+00 VY=-1.229041358570991E+01 VZ= 1.015940644815743E-01
 LT= 2.711241156278168E+03 RG= 8.128096504713938E+08 RR= 2.565206504098888E-01
2457491.893888889 = A.D. 2016-Apr-13 09:27:12.0000 TDB 
 X =-8.022260737387459E+08 Y = 1.297133078209178E+08 Z = 1.741212790145279E+07
 VX=-2.244168635615285E+00 VY=-1.229212424310573E+01 VZ= 1.012681152276720E-01
 LT= 2.711314757470755E+03 RG= 8.128317155538315E+08 RR= 2.554548340569514E-01
2457492.893888889 = A.D. 2016-Apr-14 09:27:12.0000 TDB 
 X =-8.024192545548837E+08 Y = 1.286510630062060E+08 Z = 1.742085809581753E+07
 VX=-2.226487149195354E+00 VY=-1.229654474868863E+01 VZ= 1.008468273833563E-01
 LT= 2.711388304690844E+03 RG= 8.128537644557209E+08 RR= 2.538826202258329E-01
2457493.893888889 = A.D. 2016-Apr-15 09:27:12.0000 TDB 
 X =-8.026108809541492E+08 Y = 1.275885916195193E+08 Z = 1.742955745594357E+07
 VX=-2.210115807324883E+00 VY=-1.229850171992938E+01 VZ= 1.004863945270156E-01
 LT= 2.711461393279980E+03 RG= 8.128756758635098E+08 RR= 2.539944559410169E-01
2457494.893888889 = A.D. 2016-Apr-16 09:27:12.0000 TDB 
 X =-8.028010214915597E+08 Y = 1.265258057324626E+08 Z = 1.743822162796552E+07
 VX=-2.190749157336109E+00 VY=-1.230171482881574E+01 VZ= 1.001287843956220E-01
 LT= 2.711534202440510E+03 RG= 8.128975035007100E+08 RR= 2.509508859228013E-01
2457495.893888889 = A.D. 2016-Apr-17 09:27:12.0000 TDB 
 X =-8.029896197005159E+08 Y = 1.254629198179763E+08 Z = 1.744685958684927E+07
 VX=-2.175251355052876E+00 VY=-1.230332633462955E+01 VZ= 9.977721357988401E-02
 LT= 2.711606657831586E+03 RG= 8.129192250804961E+08 RR= 2.519731427755694E-01
2457496.893888889 = A.D. 2016-Apr-18 09:27:12.0000 TDB 
 X =-8.031767837617693E+08 Y = 1.243997899039401E+08 Z = 1.745546467750508E+07
 VX=-2.157742047843324E+00 VY=-1.230527446498218E+01 VZ= 9.943700122296573E-02
 LT= 2.711679039759857E+03 RG= 8.129409246366872E+08 RR= 2.509536337759012E-01
2457497.893888889 = A.D. 2016-Apr-19 09:27:12.0000 TDB 
 X =-8.033625863413799E+08 Y = 1.233364485621110E+08 Z = 1.746403624068436E+07
 VX=-2.142158994148872E+00 VY=-1.231005058713705E+01 VZ= 9.896129485121552E-02
 LT= 2.711751604078256E+03 RG= 8.129626788720632E+08 RR= 2.514023556158163E-01
2457498.893888889 = A.D. 2016-Apr-20 09:27:12.0000 TDB 
 X =-8.035468310282025E+08 Y = 1.222727574326315E+08 Z = 1.747257214991739E+07
 VX=-2.123840247039102E+00 VY=-1.231182032661638E+01 VZ= 9.863580582197518E-02
 LT= 2.711823633305557E+03 RG= 8.129842726911634E+08 RR= 2.496091349097936E-01
2457499.893888889 = A.D. 2016-Apr-21 09:27:12.0000 TDB 
 X =-8.037296202684777E+08 Y = 1.212088307627261E+08 Z = 1.748107522789310E+07
 VX=-2.106228955761215E+00 VY=-1.231607494666236E+01 VZ= 9.821208371597479E-02
 LT= 2.711895523369927E+03 RG= 8.130058247902668E+08 RR= 2.481389451510445E-01
2457500.893888889 = A.D. 2016-Apr-22 09:27:12.0000 TDB 
 X =-8.039108221849273E+08 Y = 1.201446848469741E+08 Z = 1.748954757746611E+07
 VX=-2.089266598951160E+00 VY=-1.231745960144504E+01 VZ= 9.787275508917670E-02
 LT= 2.711966847309034E+03 RG= 8.130272071692859E+08 RR= 2.477389143019367E-01
2457501.893888889 = A.D. 2016-Apr-23 09:27:12.0000 TDB 
 X =-8.040905349365122E+08 Y = 1.190802669859051E+08 Z = 1.749798554739887E+07
 VX=-2.069921009918805E+00 VY=-1.232071367109416E+01 VZ= 9.750411562000405E-02
 LT= 2.712037902303326E+03 RG= 8.130485089206781E+08 RR= 2.447039040772598E-01
2457502.893888889 = A.D. 2016-Apr-24 09:27:12.0000 TDB 
 X =-8.042686647393144E+08 Y = 1.180157743481185E+08 Z = 1.750639800755796E+07
 VX=-2.054093624265374E+00 VY=-1.232141568761635E+01 VZ= 9.718103459917948E-02
 LT= 2.712108475294595E+03 RG= 8.130696661711988E+08 RR= 2.455177227418547E-01
2457503.893888889 = A.D. 2016-Apr-25 09:27:12.0000 TDB 
 X =-8.044453676990135E+08 Y = 1.169510888659767E+08 Z = 1.751477863684233E+07
 VX=-2.036483719766442E+00 VY=-1.232310766727578E+01 VZ= 9.684428505507636E-02
 LT= 2.712179021902016E+03 RG= 8.130908155120411E+08 RR= 2.444194883075046E-01
